satname,norad_id,inclination_deg,eccentricity,mean_motion_rev_per_day,perigee_km,apogee_km,l1,l2
STARLINK-1184,45098,53.0528,0.0002099,15.08100843,540.5510814273011,543.456156459134,1 45098U 20006BG  26023.57232302  .00010172  00000+0  66946-3 0  9995,2 45098  53.0528  88.8865 0002099  12.6973 347.4069 15.08100843330225
STARLINK-1193,45100,53.053,0.0001481,15.4202204,439.132509958411,441.1520842862192,1 45100U 20006BJ  26023.66670139  .00244721  00000+0  54802-2 0  9999,2 45100  53.0530  86.0272 0001481  76.6826 264.8912 15.42022040  5751
STARLINK-1143,45179,53.0514,0.0004608,15.53181212,404.3179841205747,410.5715762892114,1 45179U 20012B   26023.52453060  .00082310  00000+0  12822-2 0  9999,2 45179  53.0514 189.1485 0004608 170.9627 189.1466 15.53181212328885
STARLINK-1202,45183,53.1268,0.0001726,15.22856359,496.0432365527995,498.41661321526954,1 45183U 20012F   26023.66670139  .01731329  00000+0  66746-1 0  9992,2 45183  53.1268 248.2303 0001726  87.5397 243.4236 15.22856359  5796
STARLINK-1216,45185,53.1233,0.0001609,15.22196975,498.1087260059985,500.32185797356124,1 45185U 20012H   26023.66670139  .01581433  00000+0  61735-1 0  9996,2 45185  53.1233 248.2226 0001609  87.4686 287.0059 15.22196975  5792
STARLINK-1225,45187,53.103,0.0001869,15.174112,512.3799797868551,514.9561365175923,1 45187U 20012K   26023.66670139  .01836370  00000+0  82414-1 0  9998,2 45187  53.1030 248.5053 0001869  98.0316  19.4313 15.17411200  5746
STARLINK-1230,45189,53.0996,0.0001748,15.1686759,514.109559389367,516.5195100459041,1 45189U 20012M   26023.66670139  .01689915  00000+0  77625-1 0  9999,2 45189  53.0996 248.5179 0001748 100.7338 351.2830 15.16867590  5633
STARLINK-1234,45190,53.0471,0.0012128,15.51902592,402.937311000941,419.4054574176798,1 45190U 20012N   26023.46195896  .00083058  00000+0  13513-2 0  9993,2 45190  53.0471 184.6326 0012128 155.7671 204.3910 15.51902592328839
STARLINK-1269,45197,53.1073,0.0001424,15.18649024,508.94176381160105,510.90348319237546,1 45197U 20012V   26023.66670139  .00822854  00000+0  36599-1 0  9993,2 45197  53.1073 248.4200 0001424 108.1105 336.8837 15.18649024  5692
STARLINK-1154,45198,53.0514,0.0001006,15.38496656,449.86717538844096,451.2411080461543,1 45198U 20012W   26023.52482163  .00043592  00000+0  11343-2 0  9992,2 45198  53.0514 224.2826 0001006 151.6027 208.5031 15.38496656328322
STARLINK-1199,45201,53.0543,0.0001556,15.06387229,546.1731091644051,548.3282898164871,1 45201U 20012Z   26023.28681557 -.00000950  00000+0 -44892-4 0  9998,2 45201  53.0543 230.4405 0001556  83.9765 276.1401 15.06387229328273
STARLINK-1209,45206,53.05,0.0014814,15.42919953,427.40006394080865,447.59342359684706,1 45206U 20012AE  26023.44697826  .00027037  00000+0  61062-3 0  9997,2 45206  53.0500 189.5112 0014814 146.4926 213.7019 15.42919953327912
STARLINK-1210,45207,53.0141,0.0007396,15.84057165,314.0276590593385,323.93403577924073,1 45207U 20012AF  26023.66670139  .00363588  00000+0  15227-2 0  9995,2 45207  53.0141 130.7420 0007396 326.0678  75.4771 15.84057165  5837
STARLINK-1231,45212,53.0476,0.0002187,15.17432896,512.0951426842585,515.1095894829832,1 45212U 20012AL  26023.54972107  .00017086  00000+0  85725-3 0  9998,2 45212  53.0476 222.4954 0002187 132.9539 227.1639 15.17432896328367
STARLINK-1271,45217,53.0543,0.0001499,15.06388183,546.2096604002163,548.2858907559348,1 45217U 20012AR  26023.60380293  .00002001  00000+0  15322-3 0  9996,2 45217  53.0543 229.0171 0001499 102.7368 257.3788 15.06388183328324
STARLINK-1191,45222,53.1345,0.0001379,15.25273609,489.0168502656161,490.91107251076664,1 45222U 20012AW  26023.66670139  .00895949  00000+0  32617-1 0  9994,2 45222  53.1345 208.0819 0001379  95.2161 196.3677 15.25273609  5745
STARLINK-1212,45223,53.0537,0.0003869,15.40536829,441.88418051034205,447.1635554900013,1 45223U 20012AX  26023.51699930  .00051285  00000+0  12451-2 0  9991,2 45223  53.0537 205.3346 0003869 128.3202 231.8150 15.40536829328655
STARLINK-1215,45225,53.1575,9.3e-05,15.29377577,477.03418639171923,478.3093668241672,1 45225U 20012AZ  26023.66670139  .00000102  00000+0  15869-4 0  9999,2 45225  53.1575 207.3725 0000930 104.8970 357.8186 15.29377577  5795
STARLINK-1221,45227,53.0657,0.000269,15.40044478,444.1422364668615,447.8136102956405,1 45227U 20012BB  26023.64323628  .00025175  00000+0  62840-3 0  9994,2 45227  53.0657 122.7876 0002690 211.7566 148.3276 15.40044478329761
STARLINK-1222,45228,53.0558,0.0001012,15.45940469,427.92724771871144,429.304934544356,1 45228U 20012BC  26023.48476048  .00029587  00000+0  60445-3 0  9992,2 45228  53.0558 198.9690 0001012 120.4262 239.6845 15.45940469328627
STARLINK-1226,45229,53.1453,0.0001437,15.27517016,482.251719730044,484.22367881861464,1 45229U 20012BD  26023.66670139  .00884711  00000+0  30137-1 0  9991,2 45229  53.1453 207.9226 0001437  99.5572  79.1548 15.27517016  5795
STARLINK-1227,45230,53.1237,0.0001921,15.22604417,496.6674348419765,499.3092421970359,1 45230U 20012BE  26023.66670139  .00546227  00000+0  21783-1 0  9997,2 45230  53.1237 208.0758 0001921 107.1112   7.4207 15.22604417  5796
STARLINK-1246,45235,53.1172,0.0001441,15.20907468,502.11048198498884,504.09365508454084,1 45235U 20012BK  26023.66670139  .00782775  00000+0  32340-1 0  9993,2 45235  53.1172 248.0511 0001441  93.8184 315.4102 15.20907468  5793
STARLINK-1270,45237,53.0508,0.0003589,15.39613171,444.80270266380194,449.7019671283906,1 45237U 20012BM  26022.53553330  .00018098  00000+0  46137-3 0  9994,2 45237  53.0508 206.7645 0003589 145.0003 215.1237 15.39613171328542
STARLINK-1279,45360,53.0491,0.0007105,15.47944532,417.9078424188647,427.57188844464326,1 45360U 20019A   26023.51316364  .00127222  00000+0  23668-2 0  9994,2 45360  53.0491 316.3904 0007105  64.3248 295.8492 15.47944532323650
STARLINK-1301,45361,53.0484,0.0009929,15.53588435,399.5227543149995,412.9952078542374,1 45361U 20019B   26023.54045983  .00068334  00000+0  10504-2 0  9997,2 45361  53.0484 323.8206 0009929  53.5725 306.6199 15.53588435323565
STARLINK-1262,45366,53.0557,0.0001126,15.06440854,546.3065689929635,547.8661292911902,1 45366U 20019G   26023.64248499  .00000093  00000+0  25101-4 0  9999,2 45366  53.0557   8.8435 0001126  88.9063 271.2056 15.06440854322943
STARLINK-1273,45367,53.0555,0.0001079,15.24116939,492.6969332874014,494.1798192535998,1 45367U 20019H   26023.66670139  .01736490  00000+0  64475-1 0  9994,2 45367  53.0555   7.6866 0001079  80.0004 112.3749 15.24116939  5599
STARLINK-1276,45368,53.0553,0.000123,15.06399894,546.3600649004438,548.0637007256164,1 45368U 20019J   26023.36975411  .00007195  00000+0  50141-3 0  9992,2 45368  53.0553  10.0681 0001230  89.2615 270.8515 15.06399894322900
STARLINK-1277,45369,53.0556,9.82e-05,15.40034614,445.33693160522216,446.6771934991075,1 45369U 20019K   26023.66670139  .00181903  00000+0  43893-2 0  9990,2 45369  53.0556   7.0309 0000982  96.7099 229.7572 15.40034614  5693
STARLINK-1281,45370,53.0535,0.0001419,15.06410595,546.1963836269579,548.1617883321587,1 45370U 20019L   26023.35869530  .00014095  00000+0  96300-3 0  9992,2 45370  53.0535  10.1178 0001419  89.3097 270.8054 15.06410595322909
STARLINK-1300,45374,53.0559,0.0001328,15.06412707,546.2529319705627,548.0922942037996,1 45374U 20019Q   26023.24809579  .00007362  00000+0  51241-3 0  9995,2 45374  53.0559  10.6087 0001328  88.9304 271.1837 15.06412707322885
STARLINK-1302,45375,53.0541,9.32e-05,15.33924313,463.47974946394334,464.7551456929714,1 45375U 20019R   26023.66670139  .01298754  00000+0  35634-1 0  9994,2 45375  53.0541   6.3885 0000932  90.4394  67.3884 15.33924313  5798
STARLINK-1304,45376,53.0564,0.0003154,15.40760934,441.7106188040343,446.01393594820274,1 45376U 20019S   26023.21705785  .00039618  00000+0  95847-3 0  9997,2 45376  53.0564   5.8530 0003154  83.3713 276.7650 15.40760934322941
STARLINK-1305,45377,53.0504,0.0005694,15.4443843,429.1503566894362,436.90691211389367,1 45377U 20019T   26023.59700127  .00031610  00000+0  67853-3 0  9994,2 45377  53.0504 348.1780 0005694  20.1901 339.9329 15.44438430323230
STARLINK-1319,45379,53.0533,0.0005826,15.49252453,414.9517094603989,422.8716305707012,1 45379U 20019V   26023.17860584  .00058258  00000+0  10492-2 0  9997,2 45379  53.0533 349.8894 0005826  27.8470 332.2849 15.49252453323170
STARLINK-1266,45383,53.0554,8.78e-05,15.36872703,454.7637200076633,455.96368273082317,1 45383U 20019Z   26023.66670139  .01404477  00000+0  34827-1 0  9997,2 45383  53.0554 346.5472 0000878  80.1923 145.1186 15.36872703  5692
STARLINK-1267,45384,53.0562,0.0006967,15.41255347,437.6513947943067,447.15513559983174,1 45384U 20019AA  26023.16288532  .00027959  00000+0  66890-3 0  9997,2 45384  53.0562 344.0167 0006967  68.9651 291.2098 15.41255347323247
STARLINK-1272,45386,53.051,0.0006846,15.46753793,421.57149876782205,430.8880377469213,1 45386U 20019AC  26023.12967775  .00049699  00000+0  97839-3 0  9990,2 45386  53.0510 328.9572 0006846  37.1932 322.9548 15.46753793323457
STARLINK-1274,45387,53.0351,0.0010065,15.40619658,437.41256400164366,451.1460880659488,1 45387U 20019AD  26023.53847654  .00042180  00000+0  10228-2 0  9993,2 45387  53.0351 317.7159 0010065  82.2734 277.9412 15.40619658323642
STARLINK-1280,45388,53.0494,0.0006119,15.54910202,398.2646546785918,406.56269259298733,1 45388U 20019AE  26023.18278757  .00124599  00000+0  18089-2 0  9995,2 45388  53.0494 344.3835 0006119  32.1503 327.9879 15.54910202323233
STARLINK-1283,45389,53.0519,0.0011617,15.46585537,418.8180598591962,434.6284722012906,1 45389U 20019AF  26023.24033387  .00075389  00000+0  14811-2 0  9992,2 45389  53.0519 328.5682 0011617  73.2034 287.0246 15.46585537323470
STARLINK-1284,45390,53.0546,0.0001391,15.41924982,439.4799539144633,441.37687881329566,1 45390U 20019AG  26023.66670139  .00039742  00000+0  92512-3 0  9990,2 45390  53.0546 346.2504 0001391  75.6363 281.9029 15.41924982  5498
